{
"type": "FeatureCollection",
"name": "flood_extent",
"crs": { "type": "name", "properties": { "name": "urn:ogc:def:crs:EPSG::32643" } },
"features": [
{ "type": "Feature", "properties": { "flooded": 1 }, "geometry": { "type": "Polygon", "coordinates": [ [ [ 693100.0, 3197300.0 ], [ 693100.0, 3197200.0 ], [ 692700.0, 3197200.0 ], [ 692700.0, 3197100.0 ], [ 692300.0, 3197100.0 ], [ 692300.0, 3197000.0 ], [ 692000.0, 3197000.0 ], [ 692000.0, 3196900.0 ], [ 691700.0, 3196900.0 ], [ 691700.0, 3196800.0 ], [ 691500.0, 3196800.0 ], [ 691500.0, 3196700.0 ], [ 691200.0, 3196700.0 ], [ 691200.0, 3196600.0 ], [ 691000.0, 3196600.0 ], [ 691000.0, 3196500.0 ], [ 690800.0, 3196500.0 ], [ 690800.0, 3196400.0 ], [ 690600.0, 3196400.0 ], [ 690600.0, 3196300.0 ], [ 690400.0, 3196300.0 ], [ 690400.0, 3196200.0 ], [ 690300.0, 3196200.0 ], [ 690300.0, 3196100.0 ], [ 690100.0, 3196100.0 ], [ 690100.0, 3196000.0 ], [ 690000.0, 3196000.0 ], [ 690000.0, 3188900.0 ], [ 690700.0, 3188900.0 ], [ 690700.0, 3189000.0 ], [ 691100.0, 3189000.0 ], [ 691100.0, 3189100.0 ], [ 691300.0, 3189100.0 ], [ 691300.0, 3189200.0 ], [ 691600.0, 3189200.0 ], [ 691600.0, 3189300.0 ], [ 691700.0, 3189300.0 ], [ 691700.0, 3189400.0 ], [ 691900.0, 3189400.0 ], [ 691900.0, 3189500.0 ], [ 692000.0, 3189500.0 ], [ 692000.0, 3189600.0 ], [ 692100.0, 3189600.0 ], [ 692100.0, 3189700.0 ], [ 692300.0, 3189700.0 ], [ 692300.0, 3189800.0 ], [ 692400.0, 3189800.0 ], [ 692400.0, 3189900.0 ], [ 692600.0, 3189900.0 ], [ 692600.0, 3190000.0 ], [ 692700.0, 3190000.0 ], [ 692700.0, 3190100.0 ], [ 692800.0, 3190100.0 ], [ 692800.0, 3190200.0 ], [ 693000.0, 3190200.0 ], [ 693000.0, 3190300.0 ], [ 693100.0, 3190300.0 ], [ 693100.0, 3190400.0 ], [ 693300.0, 3190400.0 ], [ 693300.0, 3190500.0 ], [ 693500.0, 3190500.0 ], [ 693500.0, 3190600.0 ], [ 693700.0, 3190600.0 ], [ 693700.0, 3190700.0 ], [ 693900.0, 3190700.0 ], [ 693900.0, 3190800.0 ], [ 694300.0, 3190800.0 ], [ 694300.0, 3190700.0 ], [ 694500.0, 3190700.0 ], [ 694500.0, 3190600.0 ], [ 694700.0, 3190600.0 ], [ 694700.0, 3190500.0 ], [ 694900.0, 3190500.0 ], [ 694900.0, 3190400.0 ], [ 695000.0, 3190400.0 ], [ 695000.0, 3190300.0 ], [ 695100.0, 3190300.0 ], [ 695100.0, 3190200.0 ], [ 695200.0, 3190200.0 ], [ 695200.0, 3190100.0 ], [ 695400.0, 3190100.0 ], [ 695400.0, 3190000.0 ], [ 695500.0, 3190000.0 ], [ 695500.0, 3189900.0 ], [ 695600.0, 3189900.0 ], [ 695600.0, 3189800.0 ], [ 695700.0, 3189800.0 ], [ 695700.0, 3189700.0 ], [ 695800.0, 3189700.0 ], [ 695800.0, 3189600.0 ], [ 695900.0, 3189600.0 ], [ 695900.0, 3189500.0 ], [ 696000.0, 3189500.0 ], [ 696000.0, 3189400.0 ], [ 696100.0, 3189400.0 ], [ 696100.0, 3189300.0 ], [ 696200.0, 3189300.0 ], [ 696200.0, 3189200.0 ], [ 696300.0, 3189200.0 ], [ 696300.0, 3189100.0 ], [ 696400.0, 3189100.0 ], [ 696400.0, 3189000.0 ], [ 696500.0, 3189000.0 ], [ 696500.0, 3188900.0 ], [ 696600.0, 3188900.0 ], [ 696600.0, 3188800.0 ], [ 696700.0, 3188800.0 ], [ 696700.0, 3188700.0 ], [ 696800.0, 3188700.0 ], [ 696800.0, 3188600.0 ], [ 696900.0, 3188600.0 ], [ 696900.0, 3188500.0 ], [ 697000.0, 3188500.0 ], [ 697000.0, 3188400.0 ], [ 697100.0, 3188400.0 ], [ 697100.0, 3188300.0 ], [ 697200.0, 3188300.0 ], [ 697200.0, 3188200.0 ], [ 697300.0, 3188200.0 ], [ 697300.0, 3188100.0 ], [ 697400.0, 3188100.0 ], [ 697400.0, 3188000.0 ], [ 697500.0, 3188000.0 ], [ 697500.0, 3187900.0 ], [ 697600.0, 3187900.0 ], [ 697600.0, 3187800.0 ], [ 697700.0, 3187800.0 ], [ 697700.0, 3187700.0 ], [ 697800.0, 3187700.0 ], [ 697800.0, 3187600.0 ], [ 697900.0, 3187600.0 ], [ 697900.0, 3187500.0 ], [ 698100.0, 3187500.0 ], [ 698100.0, 3187400.0 ], [ 698200.0, 3187400.0 ], [ 698200.0, 3187300.0 ], [ 698300.0, 3187300.0 ], [ 698300.0, 3187200.0 ], [ 698400.0, 3187200.0 ], [ 698400.0, 3187100.0 ], [ 698500.0, 3187100.0 ], [ 698500.0, 3187000.0 ], [ 698600.0, 3187000.0 ], [ 698600.0, 3186900.0 ], [ 698700.0, 3186900.0 ], [ 698700.0, 3186800.0 ], [ 698900.0, 3186800.0 ], [ 698900.0, 3186700.0 ], [ 699000.0, 3186700.0 ], [ 699000.0, 3186600.0 ], [ 699100.0, 3186600.0 ], [ 699100.0, 3186500.0 ], [ 699300.0, 3186500.0 ], [ 699300.0, 3186400.0 ], [ 699400.0, 3186400.0 ], [ 699400.0, 3186300.0 ], [ 699500.0, 3186300.0 ], [ 699500.0, 3186200.0 ], [ 699700.0, 3186200.0 ], [ 699700.0, 3186100.0 ], [ 699800.0, 3186100.0 ], [ 699800.0, 3186000.0 ], [ 699900.0, 3186000.0 ], [ 699900.0, 3185900.0 ], [ 700100.0, 3185900.0 ], [ 700100.0, 3185800.0 ], [ 700200.0, 3185800.0 ], [ 700200.0, 3185700.0 ], [ 700400.0, 3185700.0 ], [ 700400.0, 3185600.0 ], [ 700600.0, 3185600.0 ], [ 700600.0, 3185500.0 ], [ 700800.0, 3185500.0 ], [ 700800.0, 3185400.0 ], [ 701000.0, 3185400.0 ], [ 701000.0, 3185300.0 ], [ 701200.0, 3185300.0 ], [ 701200.0, 3185200.0 ], [ 701500.0, 3185200.0 ], [ 701500.0, 3185100.0 ], [ 701700.0, 3185100.0 ], [ 701700.0, 3185000.0 ], [ 702000.0, 3185000.0 ], [ 702000.0, 3184900.0 ], [ 702400.0, 3184900.0 ], [ 702400.0, 3184800.0 ], [ 702900.0, 3184800.0 ], [ 702900.0, 3184700.0 ], [ 704900.0, 3184700.0 ], [ 704900.0, 3184800.0 ], [ 705300.0, 3184800.0 ], [ 705300.0, 3184900.0 ], [ 705700.0, 3184900.0 ], [ 705700.0, 3185000.0 ], [ 706000.0, 3185000.0 ], [ 706000.0, 3185100.0 ], [ 706300.0, 3185100.0 ], [ 706300.0, 3185200.0 ], [ 706500.0, 3185200.0 ], [ 706500.0, 3185300.0 ], [ 706800.0, 3185300.0 ], [ 706800.0, 3185400.0 ], [ 707000.0, 3185400.0 ], [ 707000.0, 3185500.0 ], [ 707200.0, 3185500.0 ], [ 707200.0, 3185600.0 ], [ 707400.0, 3185600.0 ], [ 707400.0, 3185700.0 ], [ 707600.0, 3185700.0 ], [ 707600.0, 3185800.0 ], [ 707700.0, 3185800.0 ], [ 707700.0, 3185900.0 ], [ 707900.0, 3185900.0 ], [ 707900.0, 3186000.0 ], [ 708000.0, 3186000.0 ], [ 708000.0, 3193100.0 ], [ 707300.0, 3193100.0 ], [ 707300.0, 3193000.0 ], [ 706900.0, 3193000.0 ], [ 706900.0, 3192900.0 ], [ 706700.0, 3192900.0 ], [ 706700.0, 3192800.0 ], [ 706400.0, 3192800.0 ], [ 706400.0, 3192700.0 ], [ 706300.0, 3192700.0 ], [ 706300.0, 3192600.0 ], [ 706100.0, 3192600.0 ], [ 706100.0, 3192500.0 ], [ 706000.0, 3192500.0 ], [ 706000.0, 3192400.0 ], [ 705900.0, 3192400.0 ], [ 705900.0, 3192300.0 ], [ 705700.0, 3192300.0 ], [ 705700.0, 3192200.0 ], [ 705600.0, 3192200.0 ], [ 705600.0, 3192100.0 ], [ 705400.0, 3192100.0 ], [ 705400.0, 3192000.0 ], [ 705300.0, 3192000.0 ], [ 705300.0, 3191900.0 ], [ 705200.0, 3191900.0 ], [ 705200.0, 3191800.0 ], [ 705000.0, 3191800.0 ], [ 705000.0, 3191700.0 ], [ 704900.0, 3191700.0 ], [ 704900.0, 3191600.0 ], [ 704700.0, 3191600.0 ], [ 704700.0, 3191500.0 ], [ 704500.0, 3191500.0 ], [ 704500.0, 3191400.0 ], [ 704300.0, 3191400.0 ], [ 704300.0, 3191300.0 ], [ 704100.0, 3191300.0 ], [ 704100.0, 3191200.0 ], [ 703700.0, 3191200.0 ], [ 703700.0, 3191300.0 ], [ 703500.0, 3191300.0 ], [ 703500.0, 3191400.0 ], [ 703300.0, 3191400.0 ], [ 703300.0, 3191500.0 ], [ 703100.0, 3191500.0 ], [ 703100.0, 3191600.0 ], [ 703000.0, 3191600.0 ], [ 703000.0, 3191700.0 ], [ 702900.0, 3191700.0 ], [ 702900.0, 3191800.0 ], [ 702800.0, 3191800.0 ], [ 702800.0, 3191900.0 ], [ 702600.0, 3191900.0 ], [ 702600.0, 3192000.0 ], [ 702500.0, 3192000.0 ], [ 702500.0, 3192100.0 ], [ 702400.0, 3192100.0 ], [ 702400.0, 3192200.0 ], [ 702300.0, 3192200.0 ], [ 702300.0, 3192300.0 ], [ 702200.0, 3192300.0 ], [ 702200.0, 3192400.0 ], [ 702100.0, 3192400.0 ], [ 702100.0, 3192500.0 ], [ 702000.0, 3192500.0 ], [ 702000.0, 3192600.0 ], [ 701900.0, 3192600.0 ], [ 701900.0, 3192700.0 ], [ 701800.0, 3192700.0 ], [ 701800.0, 3192800.0 ], [ 701700.0, 3192800.0 ], [ 701700.0, 3192900.0 ], [ 701600.0, 3192900.0 ], [ 701600.0, 3193000.0 ], [ 701500.0, 3193000.0 ], [ 701500.0, 3193100.0 ], [ 701400.0, 3193100.0 ], [ 701400.0, 3193200.0 ], [ 701300.0, 3193200.0 ], [ 701300.0, 3193300.0 ], [ 701200.0, 3193300.0 ], [ 701200.0, 3193400.0 ], [ 701100.0, 3193400.0 ], [ 701100.0, 3193500.0 ], [ 701000.0, 3193500.0 ], [ 701000.0, 3193600.0 ], [ 700900.0, 3193600.0 ], [ 700900.0, 3193700.0 ], [ 700800.0, 3193700.0 ], [ 700800.0, 3193800.0 ], [ 700700.0, 3193800.0 ], [ 700700.0, 3193900.0 ], [ 700600.0, 3193900.0 ], [ 700600.0, 3194000.0 ], [ 700500.0, 3194000.0 ], [ 700500.0, 3194100.0 ], [ 700400.0, 3194100.0 ], [ 700400.0, 3194200.0 ], [ 700300.0, 3194200.0 ], [ 700300.0, 3194300.0 ], [ 700200.0, 3194300.0 ], [ 700200.0, 3194400.0 ], [ 700100.0, 3194400.0 ], [ 700100.0, 3194500.0 ], [ 699900.0, 3194500.0 ], [ 699900.0, 3194600.0 ], [ 699800.0, 3194600.0 ], [ 699800.0, 3194700.0 ], [ 699700.0, 3194700.0 ], [ 699700.0, 3194800.0 ], [ 699600.0, 3194800.0 ], [ 699600.0, 3194900.0 ], [ 699500.0, 3194900.0 ], [ 699500.0, 3195000.0 ], [ 699400.0, 3195000.0 ], [ 699400.0, 3195100.0 ], [ 699300.0, 3195100.0 ], [ 699300.0, 3195200.0 ], [ 699100.0, 3195200.0 ], [ 699100.0, 3195300.0 ], [ 699000.0, 3195300.0 ], [ 699000.0, 3195400.0 ], [ 698900.0, 3195400.0 ], [ 698900.0, 3195500.0 ], [ 698700.0, 3195500.0 ], [ 698700.0, 3195600.0 ], [ 698600.0, 3195600.0 ], [ 698600.0, 3195700.0 ], [ 698500.0, 3195700.0 ], [ 698500.0, 3195800.0 ], [ 698300.0, 3195800.0 ], [ 698300.0, 3195900.0 ], [ 698200.0, 3195900.0 ], [ 698200.0, 3196000.0 ], [ 698100.0, 3196000.0 ], [ 698100.0, 3196100.0 ], [ 697900.0, 3196100.0 ], [ 697900.0, 3196200.0 ], [ 697800.0, 3196200.0 ], [ 697800.0, 3196300.0 ], [ 697600.0, 3196300.0 ], [ 697600.0, 3196400.0 ], [ 697400.0, 3196400.0 ], [ 697400.0, 3196500.0 ], [ 697200.0, 3196500.0 ], [ 697200.0, 3196600.0 ], [ 697000.0, 3196600.0 ], [ 697000.0, 3196700.0 ], [ 696800.0, 3196700.0 ], [ 696800.0, 3196800.0 ], [ 696500.0, 3196800.0 ], [ 696500.0, 3196900.0 ], [ 696300.0, 3196900.0 ], [ 696300.0, 3197000.0 ], [ 696000.0, 3197000.0 ], [ 696000.0, 3197100.0 ], [ 695600.0, 3197100.0 ], [ 695600.0, 3197200.0 ], [ 695100.0, 3197200.0 ], [ 695100.0, 3197300.0 ], [ 693100.0, 3197300.0 ] ] ] } }
]
}
